GAOFEN-11 01            
1 43585U 18063A   26199.62629365  .00013016  00000+0  18753-3 0  9996
2 43585  97.1266 266.4330 0003521 185.1471 174.9749 15.56139306445238
ICESAT-2                
1 43613U 18070A   26199.58528984  .00004544  00000+0  16526-3 0  9998
2 43613  92.0090 299.4644 0005256  51.3856 308.7863 15.28210627437253
HYSIS                   
1 43719U 18096A   26199.61051590  .00000798  00000+0  11590-3 0  9994
2 43719  97.9823 266.1098 0001784  83.0928 277.0486 14.78674598412062
KAZSTSAT                
1 43783U 18099AB  26199.51887380  .00000096  00000+0  12223-4 0  9997
2 43783  97.4313 230.0361 0007222 327.1686  32.9088 14.99957675416008
SAUDISAT 5A             
1 43831U 18102A   26199.59447109  .00002604  00000+0  96912-4 0  9999
2 43831  97.3046 260.5732 0010118  32.8179 327.3688 15.28340210420476
SAUDISAT 5B             
1 43833U 18102C   26199.60820104  .00002471  00000+0  91405-4 0  9997
2 43833  97.3155 263.7134 0010896  34.1051 326.0888 15.28582286420599
GAOFEN-10R              
1 44622U 19066A   26199.66224934  .00000500  00000+0  68191-4 0  9996
2 44622  98.0510 153.4732 0006687  43.6551 316.5190 14.83061059367041
CARTOSAT-3              
1 44804U 19081A   26199.64014229  .00002316  00000+0  11308-3 0  9991
2 44804  97.4283 260.9978 0012712  47.8155 312.4157 15.19199025368247
GAOFEN-12 01            
1 44819U 19082A   26199.64300756  .00000132  00000+0  23848-4 0  9998
2 44819  97.8111 205.1937 0000807  59.9882 300.1411 14.80480944358747
CSG-1                   
1 44873U 19092A   26199.57878087  .00000115  00000+0  20943-4 0  9992
2 44873  97.8898  22.7281 0001435  95.7778 264.3599 14.82158258356124
NEMO-HD                 
1 46277U 20061F   26199.60864289  .00006096  00000+0  13036-3 0  9991
2 46277  97.1896 261.2543 0001013 107.1304 253.0057 15.45181520326838
SENTINEL-6A             
1 46984U 20086A   26199.62816027 -.00000053  00000+0  33637-4 0  9990
2 46984  66.0412  69.7501 0007768 269.6675  90.3450 12.80930235264353
CAS500-1                
1 47932U 21022A   26199.65889094  .00002973  00000+0  14055-3 0  9996
2 47932  97.3857  94.2687 0005547 159.4830 200.6629 15.20152491295543
GAOFEN-12 02            
1 48079U 21026A   26199.65745543  .00000123  00000+0  23027-4 0  9998
2 48079  97.9937 197.7118 0006010 123.1502 237.0287 14.80317304286410
PLEIADES NEO 3          
1 48268U 21034A   26199.65574616  .00000984  00000+0  13169-3 0  9998
2 48268  97.8938 273.9700 0001400  95.0390 265.0983 14.81674319282316
PLEIADES NEO 4          
1 49070U 21073E   26199.48690350  .00000372  00000+0  53929-4 0  9998
2 49070  97.8937 273.7994 0001317  95.2302 264.9061 14.81674771266007
LANDSAT 9               
1 49260U 21088A   26199.16667479  .00000157  00000+0  44927-4 0  9995
2 49260  98.2268 268.9668 0001101  90.4486 269.6838 14.57096763255515
CSG-2                   
1 51444U 22008A   26199.61250331  .00000486  00000+0  67629-4 0  9999
2 51444  97.8893  22.7549 0001628  90.0958 270.0442 14.82176672241247
GAOFEN-12 03            
1 52912U 22069A   26199.62512794 -.00000105  00000+0 -71251-5 0  9999
2 52912  97.8234  86.6970 0002369  68.7945 291.3521 14.80076991219267
SWOT                    
1 54754U 22173A   26199.57101225 -.00000032  00000+0 -20191-4 0  9993
2 54754  77.6114 352.9407 0000233  67.1088 293.0088 14.00172517183540
GAOFEN-12 04            
1 57654U 23123A   26199.64551741  .00000419  00000+0  62525-4 0  9995
2 57654  97.9098 117.1922 0003336  43.1662 316.9811 14.79778681157281
PARS 1                  
1 59065U 24039Q   26199.64051400  .00006288  00000+0  12918-3 0  9997
2 59065  97.4846 181.5693 0009339  15.4912 344.6622 15.46334632133500
RESURS-P 4              
1 59371U 24061A   26199.61061346  .00001500  00000+0  50538-4 0  9992
2 59371  97.2760 146.9677 0003218  84.4017 275.7592 15.32291221128574
LEGION 1                
1 59625U 24081A   26199.56345447  .00001666  00000+0  88063-4 0  9994
2 59625  97.5010 277.0878 0007780 255.6532 104.3837 15.16855835122299
LEGION 2                
1 59626U 24081B   26199.52792074  .00001773  00000+0  93522-4 0  9998
2 59626  97.5009 277.1493 0010469 220.6689 139.3763 15.16835072122292
ALOS-4 (DAICHI-4)       
1 60182U 24123A   26199.60780083  .00000602  00000+0  87537-4 0  9999
2 60182  97.9221 296.3327 0001542  97.9077 262.2310 14.79474827110520
LEGION 3                
1 60452U 24146A   26199.43428310  .00001139  00000+0  72506-4 0  9993
2 60452  45.0015 223.0267 0007898 351.6880   8.3866 15.15665537106764
LEGION 4                
1 60453U 24146B   26199.56578077  .00001577  00000+0  95071-4 0  9992
2 60453  45.0025 314.1893 0009135 134.5764 225.5861 15.15693971105634
SENTINEL-2C             
1 60989U 24157A   26199.50123405  .00000039  00000+0  31667-4 0  9996
2 60989  98.5683 273.8384 0001021 105.2382 254.8914 14.30816225 97464
IONOSFERA-M 1           
1 61735U 24199A   26199.62941975  .00000014  00000+0  25885-4 0  9993
2 61735  98.7130  72.4636 0002109  68.0482 292.0920 14.22759622132178
