OBJECT_NAME,OBJECT_ID,EPOCH,MEAN_MOTION,ECCENTRICITY,INCLINATION,RA_OF_ASC_NODE,ARG_OF_PERICENTER,MEAN_ANOMALY,EPHEMERIS_TYPE,CLASSIFICATION_TYPE,NORAD_CAT_ID,ELEMENT_SET_NO,REV_AT_EPOCH,BSTAR,MEAN_MOTION_DOT,MEAN_MOTION_DDOT
GAOFEN-11 01,2018-063A,2026-07-18T15:01:51.771360,15.56139306,.00035213,97.1266,266.4330,185.1471,174.9749,0,U,43585,999,44523,.18752658E-3,.13016E-3,0
ICESAT-2,2018-070A,2026-07-18T14:02:49.042176,15.28210627,.00052568,92.0090,299.4644,51.3856,308.7863,0,U,43613,999,43725,.1652595E-3,.4544E-4,0
HYSIS,2018-096A,2026-07-18T14:39:08.573760,14.78674598,.00017843,97.9823,266.1098,83.0928,277.0486,0,U,43719,999,41206,.11589697E-3,.798E-5,0
KAZSTSAT,2018-099AB,2026-07-18T12:27:10.696320,14.99957675,.00072224,97.4313,230.0361,327.1686,32.9088,0,U,43783,999,41600,.12223477E-4,.96E-6,0
SAUDISAT 5A,2018-102A,2026-07-18T14:16:02.302176,15.28340210,.0010118,97.3046,260.5732,32.8179,327.3688,0,U,43831,999,42047,.96911889E-4,.2604E-4,0
SAUDISAT 5B,2018-102C,2026-07-18T14:35:48.569856,15.28582286,.00108969,97.3155,263.7134,34.1051,326.0888,0,U,43833,999,42059,.91404677E-4,.2471E-4,0
GAOFEN-10R,2019-066A,2026-07-18T15:53:38.342976,14.83061059,.00066874,98.0510,153.4732,43.6551,316.5190,0,U,44622,999,36704,.68191389E-4,.5E-5,0
CARTOSAT-3,2019-081A,2026-07-18T15:21:48.293856,15.19199025,.00127128,97.4283,260.9978,47.8155,312.4157,0,U,44804,999,36824,.11307938E-3,.2316E-4,0
GAOFEN-12 01,2019-082A,2026-07-18T15:25:55.853184,14.80480944,.00008077,97.8111,205.1937,59.9882,300.1411,0,U,44819,999,35874,.23847723E-4,.132E-5,0
CSG-1,2019-092A,2026-07-18T13:53:26.667168,14.82158258,.00014355,97.8898,22.7281,95.7778,264.3599,0,U,44873,999,35612,.20943267E-4,.115E-5,0
NEMO-HD,2020-061F,2026-07-18T14:36:26.745696,15.45181520,.00010137,97.1896,261.2543,107.1304,253.0057,0,U,46277,999,32683,.13036023E-3,.6096E-4,0
SENTINEL-6A,2020-086A,2026-07-18T15:04:33.047328,12.80930235,.00077682,66.0412,69.7501,269.6675,90.3450,0,U,46984,999,26435,.33637239E-4,-.53E-6,0
CAS500-1,2021-022A,2026-07-18T15:48:48.177216,15.20152491,.00055476,97.3857,94.2687,159.4830,200.6629,0,U,47932,999,29554,.14055159E-3,.2973E-4,0
GAOFEN-12 02,2021-026A,2026-07-18T15:46:44.149152,14.80317304,.000601,97.9937,197.7118,123.1502,237.0287,0,U,48079,999,28641,.23026771E-4,.123E-5,0
PLEIADES NEO 3,2021-034A,2026-07-18T15:44:16.468224,14.81674319,.00014002,97.8938,273.9700,95.0390,265.0983,0,U,48268,999,28231,.13168654E-3,.984E-5,0
PLEIADES NEO 4,2021-073E,2026-07-18T11:41:08.462400,14.81674771,.00013179,97.8937,273.7994,95.2302,264.9061,0,U,49070,999,26600,.53928827E-4,.372E-5,0
LANDSAT 9,2021-088A,2026-07-18T04:00:00.701856,14.57096763,.0001101,98.2268,268.9668,90.4486,269.6838,0,U,49260,999,25551,.44926632E-4,.157E-5,0
CSG-2,2022-008A,2026-07-18T14:42:00.285984,14.82176672,.00016285,97.8893,22.7549,90.0958,270.0442,0,U,51444,999,24124,.676293E-4,.486E-5,0
GAOFEN-12 03,2022-069A,2026-07-18T15:00:11.054016,14.80076991,.00023691,97.8234,86.6970,68.7945,291.3521,0,U,52912,999,21926,-.7125124E-5,-.105E-5,0
SWOT,2022-173A,2026-07-18T13:42:15.458400,14.00172517,.00002336,77.6114,352.9407,67.1088,293.0088,0,U,54754,999,18354,-.20190921E-4,-.32E-6,0
GAOFEN-12 04,2023-123A,2026-07-18T15:29:32.704224,14.79778681,.0003336,97.9098,117.1922,43.1662,316.9811,0,U,57654,999,15728,.62525111E-4,.419E-5,0
PARS 1,2024-039Q,2026-07-18T15:22:20.409600,15.46334632,.00093395,97.4846,181.5693,15.4912,344.6622,0,U,59065,999,13350,.12918329E-3,.6288E-4,0
RESURS-P 4,2024-061A,2026-07-18T14:39:17.002944,15.32291221,.00032188,97.2760,146.9677,84.4017,275.7592,0,U,59371,999,12857,.50537964E-4,.15E-4,0
LEGION 1,2024-081A,2026-07-18T13:31:22.466208,15.16855835,.00077804,97.5010,277.0878,255.6532,104.3837,0,U,59625,999,12229,.880632E-4,.1666E-4,0
LEGION 2,2024-081B,2026-07-18T12:40:12.351936,15.16835072,.00104695,97.5009,277.1493,220.6689,139.3763,0,U,59626,999,12229,.93522082E-4,.1773E-4,0
ALOS-4 (DAICHI-4),2024-123A,2026-07-18T14:35:13.991712,14.79474827,.00015426,97.9221,296.3327,97.9077,262.2310,0,U,60182,999,11052,.87537003E-4,.602E-5,0
LEGION 3,2024-146A,2026-07-18T10:25:22.059840,15.15665537,.00078984,45.0015,223.0267,351.6880,8.3866,0,U,60452,999,10676,.72506377E-4,.1139E-4,0
LEGION 4,2024-146B,2026-07-18T13:34:43.458528,15.15693971,.00091351,45.0025,314.1893,134.5764,225.5861,0,U,60453,999,10563,.95070622E-4,.1577E-4,0
SENTINEL-2C,2024-157A,2026-07-18T12:01:46.621920,14.30816225,.00010213,98.5683,273.8384,105.2382,254.8914,0,U,60989,999,9746,.31667405E-4,.39E-6,0
IONOSFERA-M 1,2024-199A,2026-07-18T15:06:21.866400,14.22759622,.00021098,98.7130,72.4636,68.0482,292.0920,0,U,61735,999,13217,.25885261E-4,.14E-6,0
